NORAD_CAT_ID,OBJECT_NAME,OBJECT_TYPE,EPOCH,MEAN_MOTION,ECCENTRICITY,INCLINATION,RA_OF_ASC_NODE,ARG_OF_PERICENTER,MEAN_ANOMALY,BSTAR,MEAN_MOTION_DOT,MEAN_MOTION_DDOT,TLE_LINE0,TLE_LINE1,TLE_LINE2,SEMIMAJOR_AXIS,PERIOD,APOGEE,PERIGEE,DECAYED
52672.0,STARLINK-4073,PAYLOAD,2023-03-06 08:01:14,15.08853554,0.0001495,53.2159,49.3188,95.3523,264.7639,0.0010602,0.00016632,0.0,0 STARLINK-4073,1 52672U 22053S   23065.33419294  .00016632  00000-0  10602-2 0  9994,2 52672  53.2159  49.3188 0001495  95.3523 264.7639 15.08853554 44647,6917.839,95.437,540.738,538.67,0.0
52672.0,STARLINK-4073,PAYLOAD,2023-03-06 22:19:43,15.08835233,0.0001388,53.2142,46.6465,87.3086,272.8065,0.00023915,3.52e-05,0.0,0 STARLINK-4073,1 52672U 22053S   23065.93036018  .00003520  00000-0  23915-3 0  9993,2 52672  53.2142  46.6465 0001388  87.3086 272.8065 15.08835233 45168,6917.895,95.438,540.72,538.8,0.0
52672.0,STARLINK-4073,PAYLOAD,2023-03-07 04:41:15,15.08826482,0.0001319,53.214,45.4563,110.3444,249.769,0.00080902,0.00012606,0.0,0 STARLINK-4073,1 52672U 22053S   23066.19532135  .00012606  00000-0  80902-3 0  9997,2 52672  53.2140  45.4563 0001319 110.3444 249.7690 15.08826482 44770,6917.922,95.438,540.699,538.874,0.0
52672.0,STARLINK-4073,PAYLOAD,2023-03-07 07:52:01,15.08855271,0.0001427,53.2145,44.8606,101.3556,258.7596,0.0011846,0.00018623,0.0,0 STARLINK-4073,1 52672U 22053S   23066.32779791  .00018623  00000-0  11846-2 0  9998,2 52672  53.2145  44.8606 0001427 101.3556 258.7596 15.08855271 44795,6917.834,95.437,540.686,538.712,0.0
52672.0,STARLINK-4073,PAYLOAD,2023-03-07 15:48:57,15.08830271,0.0001164,53.215,43.3743,82.4367,277.6757,-4.6578e-05,-1.029e-05,0.0,0 STARLINK-4073,1 52672U 22053S   23066.65900271 -.00001029  00000-0 -46578-4 0  9999,2 52672  53.2150  43.3743 0001164  82.4367 277.6757 15.08830271 44842,6917.91,95.438,540.58,538.97,0.0
52672.0,STARLINK-4073,PAYLOAD,2023-03-07 22:10:30,15.08839404,0.0001104,53.216,42.183,89.0564,271.0555,0.0011241,0.00017647,0.0,0 STARLINK-4073,1 52672U 22053S   23066.92396534  .00017647  00000-0  11241-2 0  9998,2 52672  53.2160  42.1830 0001104  89.0564 271.0555 15.08839404 45317,6917.882,95.438,540.511,538.983,0.0
52672.0,STARLINK-4073,PAYLOAD,2023-03-08 04:32:02,15.08858505,0.000121,53.2154,40.9946,79.0077,281.1051,0.0020787,0.00032966,0.0,0 STARLINK-4073,1 52672U 22053S   23067.18892254  .00032966  00000-0  20787-2 0  9993,2 52672  53.2154  40.9946 0001210  79.0077 281.1051 15.08858505 44922,6917.824,95.436,540.526,538.852,0.0
52672.0,STARLINK-4073,PAYLOAD,2023-03-08 15:39:44,15.0887175,0.0001559,53.216,38.9128,85.9328,274.1842,0.0022816,0.00036242,0.0,0 STARLINK-4073,1 52672U 22053S   23067.65260159  .00036242  00000-0  22816-2 0  9994,2 52672  53.2160  38.9128 0001559  85.9328 274.1842 15.08871750 44993,6917.783,95.436,540.727,538.57,0.0
52672.0,STARLINK-4073,PAYLOAD,2023-03-09 04:22:49,15.08869456,0.00014,53.2163,36.5336,105.7091,254.4056,0.0032523,0.00051896,0.0,0 STARLINK-4073,1 52672U 22053S   23068.18252181  .00051896  00000-0  32523-2 0  9997,2 52672  53.2163  36.5336 0001400 105.7091 254.4056 15.08869456 45072,6917.79,95.436,540.624,538.687,0.0
52672.0,STARLINK-4073,PAYLOAD,2023-03-09 07:33:35,15.08868436,0.0001413,53.2161,35.9384,103.5019,256.6131,0.0024833,0.00039486,0.0,0 STARLINK-4073,1 52672U 22053S   23068.31499896  .00039486  00000-0  24833-2 0  9994,2 52672  53.2161  35.9384 0001413 103.5019 256.6131 15.08868436 45093,6917.793,95.436,540.636,538.681,0.0
52672.0,STARLINK-4073,PAYLOAD,2023-03-10 02:38:12,15.08874317,0.0001236,53.2167,32.3719,107.5248,252.5879,0.0018841,0.00029853,0.0,0 STARLINK-4073,1 52672U 22053S   23069.10987261  .00029853  00000-0  18841-2 0  9999,2 52672  53.2167  32.3719 0001236 107.5248 252.5879 15.08874317 45216,6917.775,95.435,540.496,538.785,0.0
52672.0,STARLINK-4073,PAYLOAD,2023-03-10 04:13:35,15.08884509,0.0001209,53.2176,32.0743,106.4852,253.6273,0.0023956,0.00038091,0.0,0 STARLINK-4073,1 52672U 22053S   23069.17611037  .00038091  00000-0  23956-2 0  9998,2 52672  53.2176  32.0743 0001209 106.4852 253.6273 15.08884509 45224,6917.744,95.435,540.446,538.773,0.0
52672.0,STARLINK-4073,PAYLOAD,2023-03-11 04:04:24,15.08839745,0.0001113,53.2179,27.6118,113.2054,246.9056,0.0016858,0.00026643,0.0,0 STARLINK-4073,1 52672U 22053S   23070.16972480  .00026643  00000-0  16858-2 0  9994,2 52672  53.2179  27.6118 0001113 113.2054 246.9056 15.08839745 45379,6917.881,95.438,540.516,538.976,0.0
52672.0,STARLINK-4073,PAYLOAD,2023-03-11 05:39:47,15.08837802,9.98e-05,53.2171,27.3163,120.3059,239.8032,0.0014236,0.0002244,0.0,0 STARLINK-4073,1 52672U 22053S   23070.23596500  .00022440  00000-0  14236-2 0  9996,2 52672  53.2171  27.3163 0000998 120.3059 239.8032 15.08837802 45818,6917.887,95.438,540.443,539.062,0.0
52672.0,STARLINK-4073,PAYLOAD,2023-03-11 21:33:39,15.08818902,0.0001249,53.2168,24.3396,104.1937,255.9194,0.001516,0.00023907,0.0,0 STARLINK-4073,1 52672U 22053S   23070.89837324  .00023907  00000-0  15160-2 0  9996,2 52672  53.2168  24.3396 0001249 104.1937 255.9194 15.08818902 45913,6917.945,95.439,540.674,538.946,0.0
52672.0,STARLINK-4073,PAYLOAD,2023-03-11 23:09:02,15.08821487,0.0001186,53.2176,24.0456,130.6734,229.4361,0.0013672,0.00021527,0.0,0 STARLINK-4073,1 52672U 22053S   23070.96461218  .00021527  00000-0  13672-2 0  9991,2 52672  53.2176  24.0456 0001186 130.6734 229.4361 15.08821487 45492,6917.937,95.439,540.622,538.982,0.0
52672.0,STARLINK-4073,PAYLOAD,2023-03-12 07:05:58,15.08851279,0.0001151,53.2173,22.5608,117.9328,242.1781,0.0021471,0.00034059,0.0,0 STARLINK-4073,1 52672U 22053S   23071.29581194  .00034059  00000-0  21471-2 0  9994,2 52672  53.2173  22.5608 0001151 117.9328 242.1781 15.08851279 45546,6917.846,95.437,540.507,538.915,0.0
52672.0,STARLINK-4073,PAYLOAD,2023-03-12 22:59:49,15.08850259,0.0001213,53.2173,19.585,137.5573,222.5513,0.00091842,0.00014363,0.0,0 STARLINK-4073,1 52672U 22053S   23071.95820787  .00014363  00000-0  91842-3 0  9997,2 52672  53.2173  19.5850 0001213 137.5573 222.5513 15.08850259 45643,6917.849,95.437,540.553,538.875,0.0
52672.0,STARLINK-4073,PAYLOAD,2023-03-13 05:21:21,15.08865948,0.0001295,53.2168,18.3969,103.4203,256.6934,0.0011693,0.00018384,0.0,0 STARLINK-4073,1 52672U 22053S   23072.22316464  .00018384  00000-0  11693-2 0  9992,2 52672  53.2168  18.3969 0001295 103.4203 256.6934 15.08865948 46116,6917.801,95.436,540.562,538.77,0.0
52672.0,STARLINK-4073,PAYLOAD,2023-03-13 19:39:49,15.0884601,0.0001775,53.2166,15.7211,95.0964,265.0231,0.0014181,0.00022357,0.0,0 STARLINK-4073,1 52672U 22053S   23072.81932750  .00022357  00000-0  14181-2 0  9999,2 52672  53.2166  15.7211 0001775  95.0964 265.0231 15.08846010 45772,6917.862,95.437,540.955,538.499,0.0
52672.0,STARLINK-4073,PAYLOAD,2023-03-14 05:12:08,15.08844037,0.000158,53.217,13.9341,101.6064,258.5106,0.00050636,7.781e-05,0.0,0 STARLINK-4073,1 52672U 22053S   23073.21676848  .00007781  00000-0  50636-3 0  9997,2 52672  53.2170  13.9341 0001580 101.6064 258.5106 15.08844037 45832,6917.868,95.437,540.826,538.64,0.0
52672.0,STARLINK-4073,PAYLOAD,2023-03-14 13:09:04,15.08834409,0.000174,53.2172,12.4472,85.4631,274.656,0.00027271,4.054e-05,0.0,0 STARLINK-4073,1 52672U 22053S   23073.54797336  .00004054  00000-0  27271-3 0  9998,2 52672  53.2172  12.4472 0001740  85.4631 274.6560 15.08834409 46319,6917.897,95.438,540.966,538.559,0.0
52672.0,STARLINK-4073,PAYLOAD,2023-03-15 03:27:32,15.08871,0.0001779,53.2173,9.7737,78.4642,281.655,0.0019071,0.0003022,0.0,0 STARLINK-4073,1 52672U 22053S   23074.14412842  .00030220  00000-0  19071-2 0  9993,2 52672  53.2173   9.7737 0001779  78.4642 281.6550 15.08871000 45975,6917.786,95.436,540.881,538.42,0.0
52672.0,STARLINK-4073,PAYLOAD,2023-03-16 01:42:56,15.08849212,0.0001112,53.2167,5.6082,103.453,256.6586,0.00087869,0.00013728,0.0,0 STARLINK-4073,1 52672U 22053S   23075.07148519  .00013728  00000-0  87869-3 0  9998,2 52672  53.2167   5.6082 0001112 103.4530 256.6586 15.08849212 46110,6917.852,95.437,540.486,538.948,0.0
52672.0,STARLINK-4073,PAYLOAD,2023-03-16 19:12:11,15.0883372,0.0001291,53.2173,2.339,86.4612,273.6528,0.00084095,0.00013119,0.0,0 STARLINK-4073,1 52672U 22053S   23075.80013373  .00013119  00000-0  84095-3 0  9990,2 52672  53.2173   2.3390 0001291  86.4612 273.6528 15.08833720 46226,6917.9,95.438,540.658,538.871,0.0
52672.0,STARLINK-4073,PAYLOAD,2023-03-17 01:33:44,15.08825209,9.71e-05,53.217,1.1491,67.3211,292.7883,0.00035627,5.385e-05,0.0,0 STARLINK-4073,1 52672U 22053S   23076.06509852  .00005385  00000-0  35627-3 0  9994,2 52672  53.2170   1.1491 0000971  67.3211 292.7883 15.08825209 46262,6917.926,95.438,540.462,539.119,0.0
52672.0,STARLINK-4073,PAYLOAD,2023-03-17 19:02:59,15.08841393,9.45e-05,53.2165,357.8767,63.0004,297.1085,0.00055125,8.497e-05,0.0,0 STARLINK-4073,1 52672U 22053S   23076.79373955  .00008497  00000-0  55125-3 0  9999,2 52672  53.2165 357.8767 0000945  63.0004 297.1085 15.08841393 46802,6917.876,95.437,540.395,539.087,0.0
52672.0,STARLINK-4073,PAYLOAD,2023-03-18 01:24:31,15.08855128,9.83e-05,53.2169,356.6879,62.8337,297.2755,0.000892,0.00013943,0.0,0 STARLINK-4073,1 52672U 22053S   23077.05869691  .00013943  00000-0  89200-3 0  9999,2 52672  53.2169 356.6879 0000983  62.8337 297.2755 15.08855128 46418,6917.834,95.437,540.379,539.019,0.0
52672.0,STARLINK-4073,PAYLOAD,2023-03-18 18:53:45,15.08858802,0.0001657,53.2182,353.4193,80.9351,279.1828,0.00043799,6.693e-05,0.0,0 STARLINK-4073,1 52672U 22053S   23077.78733225  .00006693  00000-0  43799-3 0  9999,2 52672  53.2182 353.4193 0001657  80.9351 279.1828 15.08858802 46527,6917.823,95.436,540.834,538.542,0.0
52672.0,STARLINK-4073,PAYLOAD,2023-03-18 22:04:31,15.08856956,0.0001497,53.2184,352.8243,89.2431,270.8733,0.00029143,4.355e-05,0.0,0 STARLINK-4073,1 52672U 22053S   23077.91981039  .00004355  00000-0  29143-3 0  9992,2 52672  53.2184 352.8243 0001497  89.2431 270.8733 15.08856956 46971,6917.829,95.436,540.729,538.658,0.0
